[{"OBJECT_NAME":"AEROCUBE 8D","OBJECT_ID":"2016-067E","EPOCH":"2026-03-09T12:44:23.382816","MEAN_MOTION":15.22872123,"ECCENTRICITY":0.000476,"INCLINATION":98.083,"RA_OF_ASC_NODE":291.1456,"ARG_OF_PERICENTER":111.8703,"MEAN_ANOMALY":248.3038,"EPHEMERIS_TYPE":0,"CLASSIFICATION_TYPE":"U","NORAD_CAT_ID":41852,"ELEMENT_SET_NO":999,"REV_AT_EPOCH":51089,"BSTAR":0.00039318756,"MEAN_MOTION_DOT":9.137e-5,"MEAN_MOTION_DDOT":0},{"OBJECT_NAME":"STARLINK-2569","OBJECT_ID":"2021-036B","EPOCH":"2026-03-10T00:00:02.999808","MEAN_MOTION":15.23820477,"ECCENTRICITY":0.00017097,"INCLINATION":53.129,"RA_OF_ASC_NODE":9.5309,"ARG_OF_PERICENTER":96.8785,"MEAN_ANOMALY":250.7742,"EPHEMERIS_TYPE":0,"CLASSIFICATION_TYPE":"U","NORAD_CAT_ID":48277,"ELEMENT_SET_NO":999,"REV_AT_EPOCH":574,"BSTAR":-0.0006504466,"MEAN_MOTION_DOT":-0.00016175,"MEAN_MOTION_DDOT":0}]
